{
 "generated_at": "2026-06-24T08:22:35Z",
 "sources": [
  {
   "name": "CelesTrak",
   "url": "https://celestrak.org/NORAD/elements/",
   "license": "frei verfügbar; Attribution. Ursprünglich USSPACECOM/Space-Track."
  },
  {
   "name": "GCAT (J. McDowell, planet4589.org)",
   "url": "https://planet4589.org/space/gcat/",
   "license": "CC-BY 4.0"
  }
 ],
 "satellites": [
  {
   "norad": 60133,
   "name": "GOES 19",
   "intl": "2024-119A",
   "group": "weather",
   "gcat": {
    "class": "C",
    "category": "MET",
    "owner": "NOAA",
    "state": "US"
   },
   "omm": {
    "OBJECT_NAME": "GOES 19",
    "OBJECT_ID": "2024-119A",
    "EPOCH": "2026-06-23T20:53:24.770976",
    "MEAN_MOTION": 1.00272029,
    "ECCENTRICITY": 0.00004129,
    "INCLINATION": 0.0437,
    "RA_OF_ASC_NODE": 165.4139,
    "ARG_OF_PERICENTER": 340.7453,
    "MEAN_ANOMALY": 4.0322,
    "EPHEMERIS_TYPE": 0,
    "CLASSIFICATION_TYPE": "U",
    "NORAD_CAT_ID": 60133,
    "ELEMENT_SET_NO": 999,
    "REV_AT_EPOCH": 703,
    "BSTAR": 0,
    "MEAN_MOTION_DOT": -0.00000242,
    "MEAN_MOTION_DDOT": 0
   }
  },
  {
   "norad": 41875,
   "name": "GOKTURK 1A",
   "intl": "2016-073A",
   "group": "resource",
   "gcat": {
    "class": "D",
    "category": "IMG",
    "owner": "MSBTR",
    "state": "TR"
   },
   "omm": {
    "OBJECT_NAME": "GOKTURK 1A",
    "OBJECT_ID": "2016-073A",
    "EPOCH": "2026-06-23T22:47:01.278240",
    "MEAN_MOTION": 14.62778303,
    "ECCENTRICITY": 0.00014441,
    "INCLINATION": 98.1242,
    "RA_OF_ASC_NODE": 69.5173,
    "ARG_OF_PERICENTER": 76.9318,
    "MEAN_ANOMALY": 283.2045,
    "EPHEMERIS_TYPE": 0,
    "CLASSIFICATION_TYPE": "U",
    "NORAD_CAT_ID": 41875,
    "ELEMENT_SET_NO": 999,
    "REV_AT_EPOCH": 50981,
    "BSTAR": 0.000048253243,
    "MEAN_MOTION_DOT": 0.00000199,
    "MEAN_MOTION_DDOT": 0
   }
  },
  {
   "norad": 39030,
   "name": "GOKTURK 2",
   "intl": "2012-073A",
   "group": "resource",
   "gcat": {
    "class": "D",
    "category": "IMG",
    "owner": "MSBTR",
    "state": "TR"
   },
   "omm": {
    "OBJECT_NAME": "GOKTURK 2",
    "OBJECT_ID": "2012-073A",
    "EPOCH": "2026-06-23T22:19:02.947008",
    "MEAN_MOTION": 14.75549766,
    "ECCENTRICITY": 0.00013479,
    "INCLINATION": 97.6824,
    "RA_OF_ASC_NODE": 12.0232,
    "ARG_OF_PERICENTER": 56.6702,
    "MEAN_ANOMALY": 303.4637,
    "EPHEMERIS_TYPE": 0,
    "CLASSIFICATION_TYPE": "U",
    "NORAD_CAT_ID": 39030,
    "ELEMENT_SET_NO": 999,
    "REV_AT_EPOCH": 72550,
    "BSTAR": 0.00011453991,
    "MEAN_MOTION_DOT": 0.00000733,
    "MEAN_MOTION_DDOT": 0
   }
  },
  {
   "norad": 33492,
   "name": "GOSAT (IBUKI)",
   "intl": "2009-002A",
   "group": "resource",
   "gcat": {
    "class": "C",
    "category": "EOSCI",
    "owner": "JAXA",
    "state": "J"
   },
   "omm": {
    "OBJECT_NAME": "GOSAT (IBUKI)",
    "OBJECT_ID": "2009-002A",
    "EPOCH": "2026-06-23T13:08:22.164864",
    "MEAN_MOTION": 14.67538246,
    "ECCENTRICITY": 0.00013161,
    "INCLINATION": 98.0897,
    "RA_OF_ASC_NODE": 285.5489,
    "ARG_OF_PERICENTER": 83.7618,
    "MEAN_ANOMALY": 276.3737,
    "EPHEMERIS_TYPE": 0,
    "CLASSIFICATION_TYPE": "U",
    "NORAD_CAT_ID": 33492,
    "ELEMENT_SET_NO": 999,
    "REV_AT_EPOCH": 93239,
    "BSTAR": -0.000010510965,
    "MEAN_MOTION_DOT": -0.00000108,
    "MEAN_MOTION_DDOT": 0
   }
  },
  {
   "norad": 64694,
   "name": "GOSAT-GW (IBUKI GW)",
   "intl": "2025-141A",
   "group": "resource",
   "gcat": {
    "class": "C",
    "category": "EOSCI",
    "owner": "JAXA",
    "state": "J"
   },
   "omm": {
    "OBJECT_NAME": "GOSAT-GW (IBUKI GW)",
    "OBJECT_ID": "2025-141A",
    "EPOCH": "2026-06-23T22:33:45.784800",
    "MEAN_MOTION": 14.67554807,
    "ECCENTRICITY": 0.00014288,
    "INCLINATION": 98.0568,
    "RA_OF_ASC_NODE": 112.1473,
    "ARG_OF_PERICENTER": 83.4468,
    "MEAN_ANOMALY": 276.6899,
    "EPHEMERIS_TYPE": 0,
    "CLASSIFICATION_TYPE": "U",
    "NORAD_CAT_ID": 64694,
    "ELEMENT_SET_NO": 999,
    "REV_AT_EPOCH": 5283,
    "BSTAR": 0.000064646925,
    "MEAN_MOTION_DOT": 0.00000319,
    "MEAN_MOTION_DDOT": 0
   }
  },
  {
   "norad": 39574,
   "name": "GPM-CORE",
   "intl": "2014-009C",
   "group": "resource",
   "gcat": {
    "class": "C",
    "category": "EOSCI",
    "owner": "GSFC",
    "state": "US"
   },
   "omm": {
    "OBJECT_NAME": "GPM-CORE",
    "OBJECT_ID": "2014-009C",
    "EPOCH": "2026-06-23T21:04:35.086368",
    "MEAN_MOTION": 15.44697923,
    "ECCENTRICITY": 0.00115614,
    "INCLINATION": 64.9717,
    "RA_OF_ASC_NODE": 285.7159,
    "ARG_OF_PERICENTER": 254.2287,
    "MEAN_ANOMALY": 105.7579,
    "EPHEMERIS_TYPE": 0,
    "CLASSIFICATION_TYPE": "U",
    "NORAD_CAT_ID": 39574,
    "ELEMENT_SET_NO": 999,
    "REV_AT_EPOCH": 69884,
    "BSTAR": 0.00021690659,
    "MEAN_MOTION_DOT": 0.0000996,
    "MEAN_MOTION_DDOT": 0
   }
  },
  {
   "norad": 31113,
   "name": "HAIYANG-1B",
   "intl": "2007-010A",
   "group": "resource",
   "gcat": {
    "class": null,
    "category": null,
    "owner": null,
    "state": null
   },
   "omm": {
    "OBJECT_NAME": "HAIYANG-1B",
    "OBJECT_ID": "2007-010A",
    "EPOCH": "2026-06-23T22:14:58.353792",
    "MEAN_MOTION": 14.31028338,
    "ECCENTRICITY": 0.0013474,
    "INCLINATION": 98.3497,
    "RA_OF_ASC_NODE": 156.511,
    "ARG_OF_PERICENTER": 176.0348,
    "MEAN_ANOMALY": 184.0945,
    "EPHEMERIS_TYPE": 0,
    "CLASSIFICATION_TYPE": "U",
    "NORAD_CAT_ID": 31113,
    "ELEMENT_SET_NO": 999,
    "REV_AT_EPOCH": 160,
    "BSTAR": 0.00004305071,
    "MEAN_MOTION_DOT": 7.2e-7,
    "MEAN_MOTION_DDOT": 0
   }
  },
  {
   "norad": 37781,
   "name": "HAIYANG-2A",
   "intl": "2011-043A",
   "group": "resource",
   "gcat": {
    "class": null,
    "category": null,
    "owner": null,
    "state": null
   },
   "omm": {
    "OBJECT_NAME": "HAIYANG-2A",
    "OBJECT_ID": "2011-043A",
    "EPOCH": "2026-06-23T10:40:39.200160",
    "MEAN_MOTION": 13.74278654,
    "ECCENTRICITY": 0.00055567,
    "INCLINATION": 99.3399,
    "RA_OF_ASC_NODE": 176.9822,
    "ARG_OF_PERICENTER": 78.5998,
    "MEAN_ANOMALY": 281.5775,
    "EPHEMERIS_TYPE": 0,
    "CLASSIFICATION_TYPE": "U",
    "NORAD_CAT_ID": 37781,
    "ELEMENT_SET_NO": 999,
    "REV_AT_EPOCH": 74751,
    "BSTAR": 0.00018140489,
    "MEAN_MOTION_DOT": 0.00000128,
    "MEAN_MOTION_DDOT": 0
   }
  },
  {
   "norad": 40267,
   "name": "HIMAWARI-8",
   "intl": "2014-060A",
   "group": "weather",
   "gcat": {
    "class": "C",
    "category": "MET",
    "owner": "JMA",
    "state": "J"
   },
   "omm": {
    "OBJECT_NAME": "HIMAWARI-8",
    "OBJECT_ID": "2014-060A",
    "EPOCH": "2026-06-23T21:54:50.544864",
    "MEAN_MOTION": 1.00271306,
    "ECCENTRICITY": 0.00014404,
    "INCLINATION": 0.0219,
    "RA_OF_ASC_NODE": 295.8332,
    "ARG_OF_PERICENTER": 159.4358,
    "MEAN_ANOMALY": 286.1673,
    "EPHEMERIS_TYPE": 0,
    "CLASSIFICATION_TYPE": "U",
    "NORAD_CAT_ID": 40267,
    "ELEMENT_SET_NO": 999,
    "REV_AT_EPOCH": 4282,
    "BSTAR": 0,
    "MEAN_MOTION_DOT": -0.00000269,
    "MEAN_MOTION_DDOT": 0
   }
  },
  {
   "norad": 41836,
   "name": "HIMAWARI-9",
   "intl": "2016-064A",
   "group": "weather",
   "gcat": {
    "class": "C",
    "category": "MET",
    "owner": "JMA",
    "state": "J"
   },
   "omm": {
    "OBJECT_NAME": "HIMAWARI-9",
    "OBJECT_ID": "2016-064A",
    "EPOCH": "2026-06-23T21:54:58.034016",
    "MEAN_MOTION": 1.00269596,
    "ECCENTRICITY": 0.00011623,
    "INCLINATION": 0.0192,
    "RA_OF_ASC_NODE": 19.9692,
    "ARG_OF_PERICENTER": 91.1134,
    "MEAN_ANOMALY": 270.5003,
    "EPHEMERIS_TYPE": 0,
    "CLASSIFICATION_TYPE": "U",
    "NORAD_CAT_ID": 41836,
    "ELEMENT_SET_NO": 999,
    "REV_AT_EPOCH": 3527,
    "BSTAR": 0,
    "MEAN_MOTION_DOT": 0,
    "MEAN_MOTION_DDOT": 0
   }
  },
  {
   "norad": 40015,
   "name": "HODOYOSHI-3",
   "intl": "2014-033F",
   "group": "resource",
   "gcat": {
    "class": null,
    "category": null,
    "owner": null,
    "state": null
   },
   "omm": {
    "OBJECT_NAME": "HODOYOSHI-3",
    "OBJECT_ID": "2014-033F",
    "EPOCH": "2026-06-23T22:06:45.446112",
    "MEAN_MOTION": 14.8540015,
    "ECCENTRICITY": 0.00320973,
    "INCLINATION": 97.6424,
    "RA_OF_ASC_NODE": 337.6909,
    "ARG_OF_PERICENTER": 334.8075,
    "MEAN_ANOMALY": 25.1574,
    "EPHEMERIS_TYPE": 0,
    "CLASSIFICATION_TYPE": "U",
    "NORAD_CAT_ID": 40015,
    "ELEMENT_SET_NO": 999,
    "REV_AT_EPOCH": 64862,
    "BSTAR": 0.00010220603,
    "MEAN_MOTION_DOT": 0.00000835,
    "MEAN_MOTION_DDOT": 0
   }
  },
  {
   "norad": 40011,
   "name": "HODOYOSHI-4",
   "intl": "2014-033B",
   "group": "resource",
   "gcat": {
    "class": null,
    "category": null,
    "owner": null,
    "state": null
   },
   "omm": {
    "OBJECT_NAME": "HODOYOSHI-4",
    "OBJECT_ID": "2014-033B",
    "EPOCH": "2026-06-23T23:02:04.007904",
    "MEAN_MOTION": 14.88141243,
    "ECCENTRICITY": 0.00220889,
    "INCLINATION": 97.5463,
    "RA_OF_ASC_NODE": 359.4557,
    "ARG_OF_PERICENTER": 284.8714,
    "MEAN_ANOMALY": 75.0057,
    "EPHEMERIS_TYPE": 0,
    "CLASSIFICATION_TYPE": "U",
    "NORAD_CAT_ID": 40011,
    "ELEMENT_SET_NO": 999,
    "REV_AT_EPOCH": 64981,
    "BSTAR": 0.000094997143,
    "MEAN_MOTION_DOT": 0.00000826,
    "MEAN_MOTION_DDOT": 0
   }
  },
  {
   "norad": 33320,
   "name": "HUANJING 1A (HJ-1A)",
   "intl": "2008-041A",
   "group": "resource",
   "gcat": {
    "class": null,
    "category": null,
    "owner": null,
    "state": null
   },
   "omm": {
    "OBJECT_NAME": "HUANJING 1A (HJ-1A)",
    "OBJECT_ID": "2008-041A",
    "EPOCH": "2026-06-23T23:26:08.304864",
    "MEAN_MOTION": 14.83998359,
    "ECCENTRICITY": 0.00203653,
    "INCLINATION": 97.6687,
    "RA_OF_ASC_NODE": 160.5521,
    "ARG_OF_PERICENTER": 113.774,
    "MEAN_ANOMALY": 246.5613,
    "EPHEMERIS_TYPE": 0,
    "CLASSIFICATION_TYPE": "U",
    "NORAD_CAT_ID": 33320,
    "ELEMENT_SET_NO": 999,
    "REV_AT_EPOCH": 95941,
    "BSTAR": 0.00011747707,
    "MEAN_MOTION_DOT": 0.0000093,
    "MEAN_MOTION_DDOT": 0
   }
  }
 ]
}
